{"type": "FeatureCollection", "features": [ {"type": "Feature", "properties": {"norad_id": 46979, "name": "IRIDIUM 33 DEB", "group": "iridium-33-debris", "lat": -38.36464660392025, "lon": -133.8858088201797, "alt_km": 587.7914916291811, "timestamp": "2025-12-24T05:51:19.995036+00:00", "meta": {"OBJECT_NAME": "IRIDIUM 33 DEB", "OBJECT_ID": "1997-051ACM", "EPOCH": "2025-12-23T20:49:19.071840", "MEAN_MOTION": 14.90275194, "ECCENTRICITY": 0.00281454, "INCLINATION": 86.3323, "RA_OF_ASC_NODE": 43.3788, "ARG_OF_PERICENTER": 182.9796, "MEAN_ANOMALY": 177.1268, "EPHEMERIS_TYPE": 0, "CLASSIFICATION_TYPE": "U", "NORAD_CAT_ID": 46979, "ELEMENT_SET_NO": 999, "REV_AT_EPOCH": 35594, "BSTAR": 0.0037444993, "MEAN_MOTION_DOT": 0.00036787, "MEAN_MOTION_DDOT": 0}, "tle": {"line1": "1 46979U 97051ACM 25357.86758185  .00036787  00000+0  37445-2 0  9992", "line2": "2 46979  86.3323  43.3788 0028145 182.9796 177.1268 14.90275194355947"}}, "geometry": {"type": "Point", "coordinates": [-133.8858088201797, -38.36464660392025]}}]}